<?xml version="1.0" encoding="UTF-8"?>
<ndm xmlns:xsi="http://www.w3.org/2001/XMLSchema-instance" xsi:noNamespaceSchemaLocation="https://sanaregistry.org/r/ndmxml_unqualified/ndmxml-2.0.0-master-2.0.xsd">
<omm id="CCSDS_OMM_VERS" version="2.0">
<header><CREATION_DATE/><ORIGINATOR/></header><body><segment><metadata><OBJECT_NAME>KUIPER-00035</OBJECT_NAME><OBJECT_ID>2025-088AA</OBJECT_ID><CENTER_NAME>EARTH</CENTER_NAME><REF_FRAME>TEME</REF_FRAME><TIME_SYSTEM>UTC</TIME_SYSTEM><MEAN_ELEMENT_THEORY>SGP4</MEAN_ELEMENT_THEORY></metadata><data><meanElements><EPOCH>2025-11-12T21:08:11.869152</EPOCH><MEAN_MOTION>14.79966334</MEAN_MOTION><ECCENTRICITY>.00057606</ECCENTRICITY><INCLINATION>51.9011</INCLINATION><RA_OF_ASC_NODE>270.6377</RA_OF_ASC_NODE><ARG_OF_PERICENTER>41.4656</ARG_OF_PERICENTER><MEAN_ANOMALY>318.6743</MEAN_ANOMALY></meanElements><tleParameters><EPHEMERIS_TYPE>0</EPHEMERIS_TYPE><CLASSIFICATION_TYPE>U</CLASSIFICATION_TYPE><NORAD_CAT_ID>63748</NORAD_CAT_ID><ELEMENT_SET_NO>999</ELEMENT_SET_NO><REV_AT_EPOCH>3021</REV_AT_EPOCH><BSTAR>.16659959E-2</BSTAR><MEAN_MOTION_DOT>.12515E-3</MEAN_MOTION_DOT><MEAN_MOTION_DDOT>0</MEAN_MOTION_DDOT></tleParameters></data></segment></body></omm>
<omm id="CCSDS_OMM_VERS" version="2.0">
<header><CREATION_DATE/><ORIGINATOR/></header><body><segment><metadata><OBJECT_NAME>KUIPER-00037</OBJECT_NAME><OBJECT_ID>2025-088AB</OBJECT_ID><CENTER_NAME>EARTH</CENTER_NAME><REF_FRAME>TEME</REF_FRAME><TIME_SYSTEM>UTC</TIME_SYSTEM><MEAN_ELEMENT_THEORY>SGP4</MEAN_ELEMENT_THEORY></metadata><data><meanElements><EPOCH>2025-11-12T21:09:17.503776</EPOCH><MEAN_MOTION>14.80065492</MEAN_MOTION><ECCENTRICITY>.00084437</ECCENTRICITY><INCLINATION>51.8995</INCLINATION><RA_OF_ASC_NODE>269.5779</RA_OF_ASC_NODE><ARG_OF_PERICENTER>359.6951</ARG_OF_PERICENTER><MEAN_ANOMALY>0.4005</MEAN_ANOMALY></meanElements><tleParameters><EPHEMERIS_TYPE>0</EPHEMERIS_TYPE><CLASSIFICATION_TYPE>U</CLASSIFICATION_TYPE><NORAD_CAT_ID>63749</NORAD_CAT_ID><ELEMENT_SET_NO>999</ELEMENT_SET_NO><REV_AT_EPOCH>3101</REV_AT_EPOCH><BSTAR>.10413211E-2</BSTAR><MEAN_MOTION_DOT>.7754E-4</MEAN_MOTION_DOT><MEAN_MOTION_DDOT>0</MEAN_MOTION_DDOT></tleParameters></data></segment></body></omm>
<omm id="CCSDS_OMM_VERS" version="2.0">
<header><CREATION_DATE/><ORIGINATOR/></header><body><segment><metadata><OBJECT_NAME>KUIPER-00038</OBJECT_NAME><OBJECT_ID>2025-088AC</OBJECT_ID><CENTER_NAME>EARTH</CENTER_NAME><REF_FRAME>TEME</REF_FRAME><TIME_SYSTEM>UTC</TIME_SYSTEM><MEAN_ELEMENT_THEORY>SGP4</MEAN_ELEMENT_THEORY></metadata><data><meanElements><EPOCH>2025-11-12T11:50:23.834688</EPOCH><MEAN_MOTION>14.80076034</MEAN_MOTION><ECCENTRICITY>.00071541</ECCENTRICITY><INCLINATION>51.9020</INCLINATION><RA_OF_ASC_NODE>256.3148</RA_OF_ASC_NODE><ARG_OF_PERICENTER>49.7002</ARG_OF_PERICENTER><MEAN_ANOMALY>310.4585</MEAN_ANOMALY></meanElements><tleParameters><EPHEMERIS_TYPE>0</EPHEMERIS_TYPE><CLASSIFICATION_TYPE>U</CLASSIFICATION_TYPE><NORAD_CAT_ID>63750</NORAD_CAT_ID><ELEMENT_SET_NO>999</ELEMENT_SET_NO><REV_AT_EPOCH>3016</REV_AT_EPOCH><BSTAR>-.61320829E-2</BSTAR><MEAN_MOTION_DOT>-.46827E-3</MEAN_MOTION_DOT><MEAN_MOTION_DDOT>0</MEAN_MOTION_DDOT></tleParameters></data></segment></body></omm>
<omm id="CCSDS_OMM_VERS" version="2.0">
<header><CREATION_DATE/><ORIGINATOR/></header><body><segment><metadata><OBJECT_NAME>KUIPER-00039</OBJECT_NAME><OBJECT_ID>2025-134A</OBJECT_ID><CENTER_NAME>EARTH</CENTER_NAME><REF_FRAME>TEME</REF_FRAME><TIME_SYSTEM>UTC</TIME_SYSTEM><MEAN_ELEMENT_THEORY>SGP4</MEAN_ELEMENT_THEORY></metadata><data><meanElements><EPOCH>2025-11-12T11:10:34.008096</EPOCH><MEAN_MOTION>14.80024952</MEAN_MOTION><ECCENTRICITY>.00114713</ECCENTRICITY><INCLINATION>51.9024</INCLINATION><RA_OF_ASC_NODE>31.4389</RA_OF_ASC_NODE><ARG_OF_PERICENTER>264.6537</ARG_OF_PERICENTER><MEAN_ANOMALY>95.3117</MEAN_ANOMALY></meanElements><tleParameters><EPHEMERIS_TYPE>0</EPHEMERIS_TYPE><CLASSIFICATION_TYPE>U</CLASSIFICATION_TYPE><NORAD_CAT_ID>64500</NORAD_CAT_ID><ELEMENT_SET_NO>999</ELEMENT_SET_NO><REV_AT_EPOCH>2271</REV_AT_EPOCH><BSTAR>.1545442E-2</BSTAR><MEAN_MOTION_DOT>.11616E-3</MEAN_MOTION_DOT><MEAN_MOTION_DDOT>0</MEAN_MOTION_DDOT></tleParameters></data></segment></body></omm>
<omm id="CCSDS_OMM_VERS" version="2.0">
<header><CREATION_DATE/><ORIGINATOR/></header><body><segment><metadata><OBJECT_NAME>KUIPER-00040</OBJECT_NAME><OBJECT_ID>2025-134B</OBJECT_ID><CENTER_NAME>EARTH</CENTER_NAME><REF_FRAME>TEME</REF_FRAME><TIME_SYSTEM>UTC</TIME_SYSTEM><MEAN_ELEMENT_THEORY>SGP4</MEAN_ELEMENT_THEORY></metadata><data><meanElements><EPOCH>2025-11-12T12:30:08.583552</EPOCH><MEAN_MOTION>14.79874742</MEAN_MOTION><ECCENTRICITY>.001713</ECCENTRICITY><INCLINATION>51.9009</INCLINATION><RA_OF_ASC_NODE>42.3568</RA_OF_ASC_NODE><ARG_OF_PERICENTER>240.4162</ARG_OF_PERICENTER><MEAN_ANOMALY>119.5094</MEAN_ANOMALY></meanElements><tleParameters><EPHEMERIS_TYPE>0</EPHEMERIS_TYPE><CLASSIFICATION_TYPE>U</CLASSIFICATION_TYPE><NORAD_CAT_ID>64501</NORAD_CAT_ID><ELEMENT_SET_NO>999</ELEMENT_SET_NO><REV_AT_EPOCH>2256</REV_AT_EPOCH><BSTAR>-.25606347E-2</BSTAR><MEAN_MOTION_DOT>-.19712E-3</MEAN_MOTION_DOT><MEAN_MOTION_DDOT>0</MEAN_MOTION_DDOT></tleParameters></data></segment></body></omm>
<omm id="CCSDS_OMM_VERS" version="2.0">
<header><CREATION_DATE/><ORIGINATOR/></header><body><segment><metadata><OBJECT_NAME>KUIPER-00041</OBJECT_NAME><OBJECT_ID>2025-134C</OBJECT_ID><CENTER_NAME>EARTH</CENTER_NAME><REF_FRAME>TEME</REF_FRAME><TIME_SYSTEM>UTC</TIME_SYSTEM><MEAN_ELEMENT_THEORY>SGP4</MEAN_ELEMENT_THEORY></metadata><data><meanElements><EPOCH>2025-11-12T12:28:21.023328</EPOCH><MEAN_MOTION>14.80041313</MEAN_MOTION><ECCENTRICITY>.00135277</ECCENTRICITY><INCLINATION>51.9009</INCLINATION><RA_OF_ASC_NODE>43.7170</RA_OF_ASC_NODE><ARG_OF_PERICENTER>233.9083</ARG_OF_PERICENTER><MEAN_ANOMALY>126.0627</MEAN_ANOMALY></meanElements><tleParameters><EPHEMERIS_TYPE>0</EPHEMERIS_TYPE><CLASSIFICATION_TYPE>U</CLASSIFICATION_TYPE><NORAD_CAT_ID>64502</NORAD_CAT_ID><ELEMENT_SET_NO>999</ELEMENT_SET_NO><REV_AT_EPOCH>2254</REV_AT_EPOCH><BSTAR>.16709759E-2</BSTAR><MEAN_MOTION_DOT>.1259E-3</MEAN_MOTION_DOT><MEAN_MOTION_DDOT>0</MEAN_MOTION_DDOT></tleParameters></data></segment></body></omm>
<omm id="CCSDS_OMM_VERS" version="2.0">
<header><CREATION_DATE/><ORIGINATOR/></header><body><segment><metadata><OBJECT_NAME>KUIPER-00042</OBJECT_NAME><OBJECT_ID>2025-134D</OBJECT_ID><CENTER_NAME>EARTH</CENTER_NAME><REF_FRAME>TEME</REF_FRAME><TIME_SYSTEM>UTC</TIME_SYSTEM><MEAN_ELEMENT_THEORY>SGP4</MEAN_ELEMENT_THEORY></metadata><data><meanElements><EPOCH>2025-11-12T14:11:04.965216</EPOCH><MEAN_MOTION>14.80013287</MEAN_MOTION><ECCENTRICITY>.00121951</ECCENTRICITY><INCLINATION>51.9008</INCLINATION><RA_OF_ASC_NODE>39.4025</RA_OF_ASC_NODE><ARG_OF_PERICENTER>245.9615</ARG_OF_PERICENTER><MEAN_ANOMALY>114.0072</MEAN_ANOMALY></meanElements><tleParameters><EPHEMERIS_TYPE>0</EPHEMERIS_TYPE><CLASSIFICATION_TYPE>U</CLASSIFICATION_TYPE><NORAD_CAT_ID>64503</NORAD_CAT_ID><ELEMENT_SET_NO>999</ELEMENT_SET_NO><REV_AT_EPOCH>2261</REV_AT_EPOCH><BSTAR>.12522718E-2</BSTAR><MEAN_MOTION_DOT>.9366E-4</MEAN_MOTION_DOT><MEAN_MOTION_DDOT>0</MEAN_MOTION_DDOT></tleParameters></data></segment></body></omm>
<omm id="CCSDS_OMM_VERS" version="2.0">
<header><CREATION_DATE/><ORIGINATOR/></header><body><segment><metadata><OBJECT_NAME>KUIPER-00043</OBJECT_NAME><OBJECT_ID>2025-134E</OBJECT_ID><CENTER_NAME>EARTH</CENTER_NAME><REF_FRAME>TEME</REF_FRAME><TIME_SYSTEM>UTC</TIME_SYSTEM><MEAN_ELEMENT_THEORY>SGP4</MEAN_ELEMENT_THEORY></metadata><data><meanElements><EPOCH>2025-11-12T11:08:20.938272</EPOCH><MEAN_MOTION>14.80014076</MEAN_MOTION><ECCENTRICITY>.00030516</ECCENTRICITY><INCLINATION>51.9027</INCLINATION><RA_OF_ASC_NODE>32.4037</RA_OF_ASC_NODE><ARG_OF_PERICENTER>240.1516</ARG_OF_PERICENTER><MEAN_ANOMALY>119.9144</MEAN_ANOMALY></meanElements><tleParameters><EPHEMERIS_TYPE>0</EPHEMERIS_TYPE><CLASSIFICATION_TYPE>U</CLASSIFICATION_TYPE><NORAD_CAT_ID>64504</NORAD_CAT_ID><ELEMENT_SET_NO>999</ELEMENT_SET_NO><REV_AT_EPOCH>2270</REV_AT_EPOCH><BSTAR>.14995843E-2</BSTAR><MEAN_MOTION_DOT>.11252E-3</MEAN_MOTION_DOT><MEAN_MOTION_DDOT>0</MEAN_MOTION_DDOT></tleParameters></data></segment></body></omm>

</ndm>
