KUIPER-00035            
1 63748U 25088AA  25316.88069293  .00012515  00000+0  16660-2 0  9997
2 63748  51.9011 270.6377 0005760  41.4656 318.6743 14.79966334 30213
KUIPER-00037            
1 63749U 25088AB  25316.88145259  .00007754  00000+0  10413-2 0  9994
2 63749  51.8995 269.5779 0008443 359.6951   0.4005 14.80065492 31013
KUIPER-00038            
1 63750U 25088AC  25316.49333142 -.00046827  00000+0 -61321-2 0  9993
2 63750  51.9020 256.3148 0007154  49.7002 310.4585 14.80076034 30167
KUIPER-00039            
1 64500U 25134A   25316.46567139  .00011616  00000+0  15454-2 0  9993
2 64500  51.9024  31.4389 0011471 264.6537  95.3117 14.80024952 22716
KUIPER-00040            
1 64501U 25134B   25316.52093268 -.00019712  00000+0 -25606-2 0  9995
2 64501  51.9009  42.3568 0017130 240.4162 119.5094 14.79874742 22568
KUIPER-00041            
1 64502U 25134C   25316.51968777  .00012590  00000+0  16710-2 0  9992
2 64502  51.9009  43.7170 0013527 233.9083 126.0627 14.80041313 22543
KUIPER-00042            
1 64503U 25134D   25316.59102969  .00009366  00000+0  12523-2 0  9999
2 64503  51.9008  39.4025 0012195 245.9615 114.0072 14.80013287 22616
KUIPER-00043            
1 64504U 25134E   25316.46413123  .00011252  00000+0  14996-2 0  9996
2 64504  51.9027  32.4037 0003051 240.1516 119.9144 14.80014076 22703
